#aV2014 11 25  0  0  0.00000000     288 DD+AD WGS84 FIT  NGA
## 1820 172800.00000000   300.00000000 56986 0.0000000000000
+   32     1  2  3  4  5  6  7  8  9 10 11 12 13 14 15 16 17
+         18 19 20 21 22 23 24 25 26 27 28 29 30 31 32  0  0
+          0  0  0  0  0  0  0  0  0  0  0  0  0  0  0  0  0
+          0  0  0  0  0  0  0  0  0  0  0  0  0  0  0  0  0
+          0  0  0  0  0  0  0  0  0  0  0  0  0  0  0  0  0
++         2  2  2  2  2  2  2  2  2  2  2  2  2  2  2  2  2
++         2  2  2  2  2  2  2  2  2  2  2  2  2  2  2  0  0
++         0  0  0  0  0  0  0  0  0  0  0  0  0  0  0  0  0
++         0  0  0  0  0  0  0  0  0  0  0  0  0  0  0  0  0
++         0  0  0  0  0  0  0  0  0  0  0  0  0  0  0  0  0
%c cc cc ccc ccc cccc cccc cccc cccc ccccc ccccc ccccc ccccc
%c cc cc ccc ccc cccc cccc cccc cccc ccccc ccccc ccccc ccccc
%f  0.0000000  0.000000000  0.00000000000  0.000000000000000
%f  0.0000000  0.000000000  0.00000000000  0.000000000000000
%i    0    0    0    0      0      0      0      0         0
%i    0    0    0    0      0      0      0      0         0
/*      NGA, ST. LOUIS,MO.                                  
/*   EPHEMERIS COMPUTED FROM  1 DAYS OF DATA                
/*   EPOCHA SMOOTHER                                       
/* CCCCCCCCCCCCCCCCCCCCCCCCCCCCCCCCCCCCCCCCCCCCCCCCCCCCCCCCC
*  2014 11 25  7 20  0.00000000
P  1   7969.871901 -19612.019376 -15992.821436    -11.777621                    
V  1  17570.897194 -10315.086053  21630.366017      0.003780                    
P  2 -22225.900846  13241.304398  -4420.808970    532.104707                    
V  2   2435.544767  -6804.064256 -30904.973387      0.022068                    
P  3  25312.036706   5950.685004  -6668.857163     18.912935                    
V  3   6630.871820   5529.599320  30054.502317      0.368923                    
P  4  16610.228254 -19303.202356  -7359.337094     -3.576860                    
V  4   9299.922792  -2680.244872  29519.233671     -0.004916                    
P  5 -19008.783669   5676.470362  17693.511029   -313.918393                    
V  5 -19997.472911 -10560.982691 -17866.709932      0.045323                    
P  6 -21208.721925   1902.958287 -15878.651027     15.601271                    
V  6  15035.693080 -13542.573514 -21742.316079      0.060794                    
P  7  -4823.328584 -14671.793463  21662.307054    416.050974                    
V  7  22693.411083 -15172.835456  -5594.896026      0.037063                    
P  8  15901.005550 -17465.910699  11642.251756     16.472362                    
V  8  13737.628155  -5469.304338 -28060.585360      0.002175                    
P  9  -7745.365586 -24417.343719   6999.076377    -13.002787                    
V  9   1689.167856  -9144.927587 -30042.241710     -0.080150                    
P 10 -25064.654186  -8789.584392   3139.675066   -151.335241                    
V 10  -2749.817006  -4597.224002 -30713.537416     -0.016315                    
P 11   9357.063494 -23841.054259  -7245.287097   -538.888668                    
V 11   8806.144856  -4487.996919  28338.298105     -0.027541                    
P 12  -3316.287713  14546.382993 -22068.975084    248.789558                    
V 12 -24966.199050 -12079.656655  -4021.675494      0.028236                    
P 13 -14588.036798  -4661.453943  21557.892078    -63.705925                    
V 13    438.976673 -27659.264829  -5808.993809     -0.034940                    
P 14  13842.035540  11144.307427 -19554.381167    112.456943                    
V 14   -208.781595  25290.297571  13957.641802     -0.036057                    
P 15  -3761.608246  24104.419945  10040.918352   -216.583920                    
V 15  -5406.079286 -12320.747465  27677.600142     -0.022302                    
P 16  19067.505387  -3673.583557  18231.338946   -178.162165                    
V 16  20102.519392  11339.348751 -18330.793070      0.029011                    
P 17 -13722.771976 -12551.641323 -18777.752142   -139.771425                    
V 17   -422.590767 -24339.661833  16117.107914     -0.024397                    
P 18  18358.815632  16475.694476  10715.604760    360.676649                    
V 18 -13070.834453  -2185.128499  26622.716036      0.026121                    
P 19   9127.980860 -20439.142840  13769.127756   -489.642858                    
V 19   2676.081915  17890.994869  24921.343573     -0.016901                    
P 20  -3403.443065 -17278.577357 -20102.812338    260.372502                    
V 20  24134.154927   7352.925495 -10441.163164      0.041606                    
P 21  11554.675315  11435.346759  21692.426647   -396.725943                    
V 21 -20777.780851  15790.266371   2412.126953     -0.020337                    
P 22  24886.286158   9412.282520  -1336.461640    290.412294                    
V 22    293.826908   4314.097650  30727.350738      0.039456                    
P 23   -522.484253 -26127.988292  -3075.875683    -69.828132                    
V 23   3903.609839   3731.864242 -31476.525391     -0.027621                    
P 24 -10933.610181  20128.659721 -13357.283207    -39.000212                    
V 24 -15024.451187   8307.806483  24967.911987     -0.005925                    
P 25  10853.919185  17326.414586 -17110.355427     12.628453                    
V 25 -20223.332354  -7361.199289 -20237.463091     -0.018556                    
P 26 -12243.262519  13929.502799  18245.632740   -134.823628                    
V 26  -1909.408631 -24589.515146  17159.726239     -0.131160                    
P 27  12865.685348 -11205.212148  20323.211363     32.400534                    
V 27   3947.196261  25557.740766  11657.444217      0.027785                    
P 28 -22486.110966 -14033.196783   3125.986200    400.804041                    
V 28   3646.016624   -118.938677  31951.418210      0.026229                    
P 29   5009.443209  25596.736336   5141.568692    575.454159                    
V 29  -1996.112924   6606.219598 -31079.357425      0.024286                    
P 30 -15322.721936  -7373.728944  20416.580810    -82.176914                    
V 30  21466.507017 -14558.877090  10805.292640     -0.019725                    
P 31  22290.176225  -3849.376806 -14029.186232    328.486307                    
V 31 -13839.739693  11487.446413 -24555.677609     -0.006212                    
P 32  11935.820958 -10760.121546 -21054.835507   -285.850657                    
V 32  23218.322302  13623.033719   6741.474076      0.089149                    
EOF
